CCSDS_OMM_VERS = 2.0
CREATION_DATE  = 
ORIGINATOR     = 

OBJECT_NAME    = HULIANWANG DIGUI 13H
OBJECT_ID      = 2025-258H
CENTER_NAME    = EARTH
REF_FRAME      = TEME
TIME_SYSTEM    = UTC
MEAN_ELEMENT_THEORY = SGP/SGP4

EPOCH          = 2025-11-26T23:29:34.938240
MEAN_MOTION    = 14.23500025
ECCENTRICITY   = .00121521
INCLINATION    = 50.0004
RA_OF_ASC_NODE = 328.2434
ARG_OF_PERICENTER = 304.6484
MEAN_ANOMALY   = 55.3282

EPHEMERIS_TYPE = 0
CLASSIFICATION_TYPE = U
NORAD_CAT_ID   = 66419
ELEMENT_SET_NO = 999
REV_AT_EPOCH   = 241
BSTAR          = .37812135E-4
MEAN_MOTION_DOT = -.73E-6
MEAN_MOTION_DDOT = 0

CCSDS_OMM_VERS = 2.0
CREATION_DATE  = 
ORIGINATOR     = 

OBJECT_NAME    = HULIANWANG DIGUI 13J
OBJECT_ID      = 2025-258J
CENTER_NAME    = EARTH
REF_FRAME      = TEME
TIME_SYSTEM    = UTC
MEAN_ELEMENT_THEORY = SGP/SGP4

EPOCH          = 2025-11-26T23:27:42.100704
MEAN_MOTION    = 14.23467651
ECCENTRICITY   = .00113968
INCLINATION    = 50.0028
RA_OF_ASC_NODE = 328.2438
ARG_OF_PERICENTER = 311.1150
MEAN_ANOMALY   = 48.8778

EPHEMERIS_TYPE = 0
CLASSIFICATION_TYPE = U
NORAD_CAT_ID   = 66420
ELEMENT_SET_NO = 999
REV_AT_EPOCH   = 240
BSTAR          = .49131018E-4
MEAN_MOTION_DOT = -.47E-6
MEAN_MOTION_DDOT = 0

CCSDS_OMM_VERS = 2.0
CREATION_DATE  = 
ORIGINATOR     = 

OBJECT_NAME    = CZ-12 R/B
OBJECT_ID      = 2025-258K
CENTER_NAME    = EARTH
REF_FRAME      = TEME
TIME_SYSTEM    = UTC
MEAN_ELEMENT_THEORY = SGP/SGP4

EPOCH          = 2025-11-26T22:09:17.909280
MEAN_MOTION    = 14.42313226
ECCENTRICITY   = .00645663
INCLINATION    = 49.9959
RA_OF_ASC_NODE = 326.5811
ARG_OF_PERICENTER = 192.5979
MEAN_ANOMALY   = 167.3331

EPHEMERIS_TYPE = 0
CLASSIFICATION_TYPE = U
NORAD_CAT_ID   = 66421
ELEMENT_SET_NO = 999
REV_AT_EPOCH   = 243
BSTAR          = .26580695E-4
MEAN_MOTION_DOT = -.81E-6
MEAN_MOTION_DDOT = 0

CCSDS_OMM_VERS = 2.0
CREATION_DATE  = 
ORIGINATOR     = 

OBJECT_NAME    = STARLINK-35617
OBJECT_ID      = 2025-259A
CENTER_NAME    = EARTH
REF_FRAME      = TEME
TIME_SYSTEM    = UTC
MEAN_ELEMENT_THEORY = SGP/SGP4

EPOCH          = 2025-11-27T04:00:03.000096
MEAN_MOTION    = 15.72035251
ECCENTRICITY   = .0001511
INCLINATION    = 42.9999
RA_OF_ASC_NODE = 138.8941
ARG_OF_PERICENTER = 272.9017
MEAN_ANOMALY   = 238.3010

EPHEMERIS_TYPE = 0
CLASSIFICATION_TYPE = U
NORAD_CAT_ID   = 66422
ELEMENT_SET_NO = 999
REV_AT_EPOCH   = 377
BSTAR          = -.16745E-1
MEAN_MOTION_DOT = -.199506E-1
MEAN_MOTION_DDOT = 0

CCSDS_OMM_VERS = 2.0
CREATION_DATE  = 
ORIGINATOR     = 

OBJECT_NAME    = STARLINK-35618
OBJECT_ID      = 2025-259B
CENTER_NAME    = EARTH
REF_FRAME      = TEME
TIME_SYSTEM    = UTC
MEAN_ELEMENT_THEORY = SGP/SGP4

EPOCH          = 2025-11-27T04:00:03.000096
MEAN_MOTION    = 15.72028171
ECCENTRICITY   = .0001404
INCLINATION    = 42.9998
RA_OF_ASC_NODE = 138.8894
ARG_OF_PERICENTER = 273.5799
MEAN_ANOMALY   = 239.5408

EPHEMERIS_TYPE = 0
CLASSIFICATION_TYPE = U
NORAD_CAT_ID   = 66423
ELEMENT_SET_NO = 999
REV_AT_EPOCH   = 377
BSTAR          = -.16635E-1
MEAN_MOTION_DOT = -.1982829E-1
MEAN_MOTION_DDOT = 0

CCSDS_OMM_VERS = 2.0
CREATION_DATE  = 
ORIGINATOR     = 

OBJECT_NAME    = STARLINK-35588
OBJECT_ID      = 2025-259C
CENTER_NAME    = EARTH
REF_FRAME      = TEME
TIME_SYSTEM    = UTC
MEAN_ELEMENT_THEORY = SGP/SGP4

EPOCH          = 2025-11-27T04:00:03.000096
MEAN_MOTION    = 15.72028457
ECCENTRICITY   = .0001369
INCLINATION    = 42.9998
RA_OF_ASC_NODE = 138.8852
ARG_OF_PERICENTER = 270.6149
MEAN_ANOMALY   = 244.4234

EPHEMERIS_TYPE = 0
CLASSIFICATION_TYPE = U
NORAD_CAT_ID   = 66424
ELEMENT_SET_NO = 999
REV_AT_EPOCH   = 377
BSTAR          = -.16643E-1
MEAN_MOTION_DOT = -.1983694E-1
MEAN_MOTION_DDOT = 0

CCSDS_OMM_VERS = 2.0
CREATION_DATE  = 
ORIGINATOR     = 

OBJECT_NAME    = STARLINK-35555
OBJECT_ID      = 2025-259D
CENTER_NAME    = EARTH
REF_FRAME      = TEME
TIME_SYSTEM    = UTC
MEAN_ELEMENT_THEORY = SGP/SGP4

EPOCH          = 2025-11-27T04:00:03.000096
MEAN_MOTION    = 15.72026726
ECCENTRICITY   = .0001425
INCLINATION    = 42.9999
RA_OF_ASC_NODE = 138.8789
ARG_OF_PERICENTER = 275.9040
MEAN_ANOMALY   = 241.0511

EPHEMERIS_TYPE = 0
CLASSIFICATION_TYPE = U
NORAD_CAT_ID   = 66425
ELEMENT_SET_NO = 999
REV_AT_EPOCH   = 377
BSTAR          = -.1662E-1
MEAN_MOTION_DOT = -.1981154E-1
MEAN_MOTION_DDOT = 0

CCSDS_OMM_VERS = 2.0
CREATION_DATE  = 
ORIGINATOR     = 

OBJECT_NAME    = STARLINK-35589
OBJECT_ID      = 2025-259E
CENTER_NAME    = EARTH
REF_FRAME      = TEME
TIME_SYSTEM    = UTC
MEAN_ELEMENT_THEORY = SGP/SGP4

EPOCH          = 2025-11-27T04:00:03.000096
MEAN_MOTION    = 15.72026529
ECCENTRICITY   = .0001461
INCLINATION    = 42.9998
RA_OF_ASC_NODE = 138.8752
ARG_OF_PERICENTER = 271.1342
MEAN_ANOMALY   = 247.7387

EPHEMERIS_TYPE = 0
CLASSIFICATION_TYPE = U
NORAD_CAT_ID   = 66426
ELEMENT_SET_NO = 999
REV_AT_EPOCH   = 377
BSTAR          = -.16622E-1
MEAN_MOTION_DOT = -.1981404E-1
MEAN_MOTION_DDOT = 0

CCSDS_OMM_VERS = 2.0
CREATION_DATE  = 
ORIGINATOR     = 

OBJECT_NAME    = STARLINK-35611
OBJECT_ID      = 2025-259F
CENTER_NAME    = EARTH
REF_FRAME      = TEME
TIME_SYSTEM    = UTC
MEAN_ELEMENT_THEORY = SGP/SGP4

EPOCH          = 2025-11-27T04:00:03.000096
MEAN_MOTION    = 15.72031657
ECCENTRICITY   = .0001433
INCLINATION    = 42.9999
RA_OF_ASC_NODE = 138.8698
ARG_OF_PERICENTER = 273.1700
MEAN_ANOMALY   = 247.6158

EPHEMERIS_TYPE = 0
CLASSIFICATION_TYPE = U
NORAD_CAT_ID   = 66427
ELEMENT_SET_NO = 999
REV_AT_EPOCH   = 377
BSTAR          = -.16666E-1
MEAN_MOTION_DOT = -.1986353E-1
MEAN_MOTION_DDOT = 0

CCSDS_OMM_VERS = 2.0
CREATION_DATE  = 
ORIGINATOR     = 

OBJECT_NAME    = STARLINK-35610
OBJECT_ID      = 2025-259G
CENTER_NAME    = EARTH
REF_FRAME      = TEME
TIME_SYSTEM    = UTC
MEAN_ELEMENT_THEORY = SGP/SGP4

EPOCH          = 2025-11-27T04:00:03.000096
MEAN_MOTION    = 15.72032510
ECCENTRICITY   = .0001499
INCLINATION    = 42.9999
RA_OF_ASC_NODE = 138.8651
ARG_OF_PERICENTER = 269.9927
MEAN_ANOMALY   = 252.7091

EPHEMERIS_TYPE = 0
CLASSIFICATION_TYPE = U
NORAD_CAT_ID   = 66428
ELEMENT_SET_NO = 999
REV_AT_EPOCH   = 377
BSTAR          = -.16673E-1
MEAN_MOTION_DOT = -.1987264E-1
MEAN_MOTION_DDOT = 0

CCSDS_OMM_VERS = 2.0
CREATION_DATE  = 
ORIGINATOR     = 

OBJECT_NAME    = STARLINK-35533
OBJECT_ID      = 2025-259H
CENTER_NAME    = EARTH
REF_FRAME      = TEME
TIME_SYSTEM    = UTC
MEAN_ELEMENT_THEORY = SGP/SGP4

EPOCH          = 2025-11-27T04:00:03.000096
MEAN_MOTION    = 15.72038492
ECCENTRICITY   = .0001448
INCLINATION    = 42.9999
RA_OF_ASC_NODE = 138.8590
ARG_OF_PERICENTER = 272.6205
MEAN_ANOMALY   = 251.9996

EPHEMERIS_TYPE = 0
CLASSIFICATION_TYPE = U
NORAD_CAT_ID   = 66429
ELEMENT_SET_NO = 999
REV_AT_EPOCH   = 377
BSTAR          = -.16776E-1
MEAN_MOTION_DOT = -.1998436E-1
MEAN_MOTION_DDOT = 0

CCSDS_OMM_VERS = 2.0
CREATION_DATE  = 
ORIGINATOR     = 

OBJECT_NAME    = STARLINK-35470
OBJECT_ID      = 2025-259J
CENTER_NAME    = EARTH
REF_FRAME      = TEME
TIME_SYSTEM    = UTC
MEAN_ELEMENT_THEORY = SGP/SGP4

EPOCH          = 2025-11-27T04:00:03.000096
MEAN_MOTION    = 15.72037012
ECCENTRICITY   = .0001484
INCLINATION    = 42.9999
RA_OF_ASC_NODE = 138.8553
ARG_OF_PERICENTER = 273.3534
MEAN_ANOMALY   = 253.1825

EPHEMERIS_TYPE = 0
CLASSIFICATION_TYPE = U
NORAD_CAT_ID   = 66430
ELEMENT_SET_NO = 999
REV_AT_EPOCH   = 377
BSTAR          = -.16745E-1
MEAN_MOTION_DOT = -.1995116E-1
MEAN_MOTION_DDOT = 0

