HULIANWANG DIGUI 13H    
1 66419U 25258H   25330.97887660 -.00000073  00000+0  37812-4 0  9997
2 66419  50.0004 328.2434 0012152 304.6484  55.3282 14.23500025  2417
HULIANWANG DIGUI 13J    
1 66420U 25258J   25330.97757061 -.00000047  00000+0  49131-4 0  9998
2 66420  50.0028 328.2438 0011396 311.1150  48.8778 14.23467651  2404
CZ-12 R/B               
1 66421U 25258K   25330.92312395 -.00000081  00000+0  26581-4 0  9993
2 66421  49.9959 326.5811 0064566 192.5979 167.3331 14.42313226  2432
STARLINK-35617          
1 66422U 25259A   25331.16670139 -.01995060  00000+0 -16745-1 0  9995
2 66422  42.9999 138.8941 0001511 272.9017 238.3010 15.72035251  3779
STARLINK-35618          
1 66423U 25259B   25331.16670139 -.01982829  00000+0 -16635-1 0  9993
2 66423  42.9998 138.8894 0001404 273.5799 239.5408 15.72028171  3778
STARLINK-35588          
1 66424U 25259C   25331.16670139 -.01983694  00000+0 -16643-1 0  9994
2 66424  42.9998 138.8852 0001369 270.6149 244.4234 15.72028457  3779
STARLINK-35555          
1 66425U 25259D   25331.16670139 -.01981154  00000+0 -16620-1 0  9999
2 66425  42.9999 138.8789 0001425 275.9040 241.0511 15.72026726  3779
STARLINK-35589          
1 66426U 25259E   25331.16670139 -.01981404  00000+0 -16622-1 0  9990
2 66426  42.9998 138.8752 0001461 271.1342 247.7387 15.72026529  3777
STARLINK-35611          
1 66427U 25259F   25331.16670139 -.01986353  00000+0 -16666-1 0  9997
2 66427  42.9999 138.8698 0001433 273.1700 247.6158 15.72031657  3770
STARLINK-35610          
1 66428U 25259G   25331.16670139 -.01987264  00000+0 -16673-1 0  9998
2 66428  42.9999 138.8651 0001499 269.9927 252.7091 15.72032510  3778
STARLINK-35533          
1 66429U 25259H   25331.16670139 -.01998436  00000+0 -16776-1 0  9996
2 66429  42.9999 138.8590 0001448 272.6205 251.9996 15.72038492  3775
STARLINK-35470          
1 66430U 25259J   25331.16670139 -.01995116  00000+0 -16745-1 0  9996
2 66430  42.9999 138.8553 0001484 273.3534 253.1825 15.72037012  3771
